{
  "norad_id": 63054,
  "name": "STARLINK-11347 [DTC]",
  "history": [
    {
      "epoch": "2026-03-28T20:49:42.598560",
      "apogee_km": 356.775061420115,
      "perigee_km": 354.11583503965994,
      "latitude_deg": 42.37102082995675,
      "longitude_deg": -151.28600160009228,
      "semi_major_axis_km": 6733.582448229887,
      "eccentricity": 0.00019746,
      "inclination_deg": 42.9982,
      "raan_deg": 260.0518,
      "arg_perigee_deg": 359.9051,
      "mean_anomaly_deg": 0.1816,
      "mean_motion_rev_day": 15.71207302
    }
  ]
}