{"fetched_at":"2026-03-29T16:36:15Z","count":15609,"tles":[{"name":"STARLINK-11347 [DTC]","line1":"1 63054U 25035C   26087.86785415  .00377430  00000+0  27704-2 0  9995","line2":"2 63054  42.9982 260.0518 0001974 359.9051   0.1816 15.71207302 64238","category":"Starlink"}]}